{"type": "FeatureCollection", "features": [ {"type": "Feature", "properties": {"norad_id": 64901, "name": "CO3D 4", "group": "resource", "lat": -71.40069386408808, "lon": 88.94651881926809, "alt_km": 512.6445852657516, "timestamp": "2025-12-15T19:00:45.004345+00:00", "meta": {"OBJECT_NAME": "CO3D 4", "OBJECT_ID": "2025-156C", "EPOCH": "2025-12-14T22:47:45.154752", "MEAN_MOTION": 15.20178368, "ECCENTRICITY": 8.293e-05, "INCLINATION": 97.4342, "RA_OF_ASC_NODE": 65.2854, "ARG_OF_PERICENTER": 193.9253, "MEAN_ANOMALY": 166.1959, "EPHEMERIS_TYPE": 0, "CLASSIFICATION_TYPE": "U", "NORAD_CAT_ID": 64901, "ELEMENT_SET_NO": 999, "REV_AT_EPOCH": 2154, "BSTAR": 0.00030591969, "MEAN_MOTION_DOT": 6.556e-05, "MEAN_MOTION_DDOT": 0}, "tle": {"line1": "1 64901U 25156C   25348.94982818  .00006556  00000+0  30592-3 0  9993", "line2": "2 64901  97.4342  65.2854 0000829 193.9253 166.1959 15.20178368 21542"}}, "geometry": {"type": "Point", "coordinates": [88.94651881926809, -71.40069386408808]}}, {"type": "Feature", "properties": {"norad_id": 64902, "name": "CO3D 2", "group": "resource", "lat": 50.58569040973548, "lon": -104.79467039080637, "alt_km": 506.9167136990791, "timestamp": "2025-12-15T19:00:45.004356+00:00", "meta": {"OBJECT_NAME": "CO3D 2", "OBJECT_ID": "2025-156D", "EPOCH": "2025-12-12T21:01:26.694624", "MEAN_MOTION": 15.22031437, "ECCENTRICITY": 0.00203863, "INCLINATION": 97.4215, "RA_OF_ASC_NODE": 63.2016, "ARG_OF_PERICENTER": 351.3096, "MEAN_ANOMALY": 8.7784, "EPHEMERIS_TYPE": 0, "CLASSIFICATION_TYPE": "U", "NORAD_CAT_ID": 64902, "ELEMENT_SET_NO": 999, "REV_AT_EPOCH": 2122, "BSTAR": 0.00010503321, "MEAN_MOTION_DOT": 2.342e-05, "MEAN_MOTION_DDOT": 0}, "tle": {"line1": "1 64902U 25156D   25346.87600341  .00002342  00000+0  10503-3 0  9991", "line2": "2 64902  97.4215  63.2016 0020386 351.3096   8.7784 15.22031437 21224"}}, "geometry": {"type": "Point", "coordinates": [-104.79467039080637, 50.58569040973548]}}, {"type": "Feature", "properties": {"norad_id": 64903, "name": "CO3D 1", "group": "resource", "lat": 69.00491462301397, "lon": -94.09278914956514, "alt_km": 498.0806493430291, "timestamp": "2025-12-15T19:00:45.004366+00:00", "meta": {"OBJECT_NAME": "CO3D 1", "OBJECT_ID": "2025-156E", "EPOCH": "2025-12-15T15:22:20.851104", "MEAN_MOTION": 15.20205605, "ECCENTRICITY": 8.54e-05, "INCLINATION": 97.4345, "RA_OF_ASC_NODE": 65.8649, "ARG_OF_PERICENTER": 71.0732, "MEAN_ANOMALY": 289.0596, "EPHEMERIS_TYPE": 0, "CLASSIFICATION_TYPE": "U", "NORAD_CAT_ID": 64903, "ELEMENT_SET_NO": 999, "REV_AT_EPOCH": 2164, "BSTAR": 0.00019508, "MEAN_MOTION_DOT": 4.158e-05, "MEAN_MOTION_DDOT": 0}, "tle": {"line1": "1 64903U 25156E   25349.64051911  .00004158  00000+0  19508-3 0  9994", "line2": "2 64903  97.4345  65.8649 0000854  71.0732 289.0596 15.20205605 21649"}}, "geometry": {"type": "Point", "coordinates": [-94.09278914956514, 69.00491462301397]}}, {"type": "Feature", "properties": {"norad_id": 66514, "name": "SENTINEL-6B", "group": "resource", "lat": 39.96611062706587, "lon": -45.78879956892028, "alt_km": 1335.605847463813, "timestamp": "2025-12-15T19:00:45.004376+00:00", "meta": {"OBJECT_NAME": "SENTINEL-6B", "OBJECT_ID": "2025-264A", "EPOCH": "2025-12-12T06:01:21.430272", "MEAN_MOTION": 12.81479583, "ECCENTRICITY": 0.00078489, "INCLINATION": 66.0385, "RA_OF_ASC_NODE": 163.4531, "ARG_OF_PERICENTER": 270.1768, "MEAN_ANOMALY": 89.8348, "EPHEMERIS_TYPE": 0, "CLASSIFICATION_TYPE": "U", "NORAD_CAT_ID": 66514, "ELEMENT_SET_NO": 999, "REV_AT_EPOCH": 322, "BSTAR": 0.00019742237, "MEAN_MOTION_DOT": -1.5e-07, "MEAN_MOTION_DDOT": 0}, "tle": {"line1": "1 66514U 25264A   25346.25094248 -.00000015  00000+0  19742-3 0  9997", "line2": "2 66514  66.0385 163.4531 0007848 270.1768  89.8348 12.81479583  3228"}}, "geometry": {"type": "Point", "coordinates": [-45.78879956892028, 39.96611062706587]}}]}